[
    {
        "Altitude(m)": 706204.607636961,
        "Argument of Periapsis(deg)": 0.0,
        "Eccentricity": 0.0,
        "Inclination(deg)": 45.0,
        "Latitude(deg)": 40.17341157752181,
        "Longitude(deg)": -37.85707572293175,
        "Mean Anomaly(deg)": 65.4545,
        "RAAN(deg)": 5.0,
        "Satellite Name": "Constellation 1 26",
        "Satellite Number": 26,
        "Semi-Major Axis(m)": 7083131.272910544,
        "Time(s)": 0
    },
    {
        "Altitude(m)": 706209.6193440483,
        "Argument of Periapsis(deg)": 5.994800624540561e-05,
        "Eccentricity": 0.0,
        "Inclination(deg)": 45.0,
        "Latitude(deg)": 40.19676437001207,
        "Longitude(deg)": -37.787945475282086,
        "Mean Anomaly(deg)": 65.51520114024989,
        "RAAN(deg)": 4.9999434108344305,
        "Satellite Name": "Constellation 1 26",
        "Satellite Number": 26,
        "Semi-Major Axis(m)": 7083131.272910544,
        "Time(s)": 1
    },
    {
        "Altitude(m)": 706214.622933747,
        "Argument of Periapsis(deg)": 0.00011989601249081122,
        "Eccentricity": 0.0,
        "Inclination(deg)": 45.0,
        "Latitude(deg)": 40.22007071725246,
        "Longitude(deg)": -37.71876504816651,
        "Mean Anomaly(deg)": 65.57590228049979,
        "RAAN(deg)": 4.999886821668861,
        "Satellite Name": "Constellation 1 26",
        "Satellite Number": 26,
        "Semi-Major Axis(m)": 7083131.272910544,
        "Time(s)": 2
    },
    {
        "Altitude(m)": 706219.6183757908,
        "Argument of Periapsis(deg)": 0.00017984401873621686,
        "Eccentricity": 0.0,
        "Inclination(deg)": 45.0,
        "Latitude(deg)": 40.24333054987352,
        "Longitude(deg)": -37.64953446576628,
        "Mean Anomaly(deg)": 65.6366034207497,
        "RAAN(deg)": 4.9998302325032915,
        "Satellite Name": "Constellation 1 26",
        "Satellite Number": 26,
        "Semi-Major Axis(m)": 7083131.272910544,
        "Time(s)": 3
    },
    {
        "Altitude(m)": 706224.6056399742,
        "Argument of Periapsis(deg)": 0.00023979202498162244,
        "Eccentricity": 0.0,
        "Inclination(deg)": 45.0,
        "Latitude(deg)": 40.26654379851936,
        "Longitude(deg)": -37.58025375272878,
        "Mean Anomaly(deg)": 65.69730456099958,
        "RAAN(deg)": 4.999773643337722,
        "Satellite Name": "Constellation 1 26",
        "Satellite Number": 26,
        "Semi-Major Axis(m)": 7083131.272910544,
        "Time(s)": 4
    },
    {
        "Altitude(m)": 706229.5846961532,
        "Argument of Periapsis(deg)": 0.00029974003122702807,
        "Eccentricity": 0.0,
        "Inclination(deg)": 45.0,
        "Latitude(deg)": 40.28971039384842,
        "Longitude(deg)": -37.51092293416913,
        "Mean Anomaly(deg)": 65.75800570124949,
        "RAAN(deg)": 4.9997170541721525,
        "Satellite Name": "Constellation 1 26",
        "Satellite Number": 26,
        "Semi-Major Axis(m)": 7083131.272910544,
        "Time(s)": 5
    },
    {
        "Altitude(m)": 706234.5555142305,
        "Argument of Periapsis(deg)": 0.00035968803747243373,
        "Eccentricity": 0.0,
        "Inclination(deg)": 45.0,
        "Latitude(deg)": 40.312830266534114,
        "Longitude(deg)": -37.441542035671254,
        "Mean Anomaly(deg)": 65.81870684149939,
        "RAAN(deg)": 4.999660465006583,
        "Satellite Name": "Constellation 1 26",
        "Satellite Number": 26,
        "Semi-Major Axis(m)": 7083131.272910544,
        "Time(s)": 6
    },
    {
        "Altitude(m)": 706239.5180641656,
        "Argument of Periapsis(deg)": 0.00041963604371783933,
        "Eccentricity": 0.0,
        "Inclination(deg)": 45.0,
        "Latitude(deg)": 40.33590334726528,
        "Longitude(deg)": -37.37211125138615,
        "Mean Anomaly(deg)": 65.87940798174928,
        "RAAN(deg)": 4.9996038758410135,
        "Satellite Name": "Constellation 1 26",
        "Satellite Number": 26,
        "Semi-Major Axis(m)": 7083131.272910544,
        "Time(s)": 7
    },
    {
        "Altitude(m)": 706244.4723159794,
        "Argument of Periapsis(deg)": 0.0004795840499632449,
        "Eccentricity": 0.0,
        "Inclination(deg)": 45.0,
        "Latitude(deg)": 40.35892956674769,
        "Longitude(deg)": -37.30263027164564,
        "Mean Anomaly(deg)": 65.94010912199919,
        "RAAN(deg)": 4.999547286675444,
        "Satellite Name": "Constellation 1 26",
        "Satellite Number": 26,
        "Semi-Major Axis(m)": 7083131.272910544,
        "Time(s)": 8
    },
    {
        "Altitude(m)": 706249.4182397467,
        "Argument of Periapsis(deg)": 0.0005395320562086505,
        "Eccentricity": 0.0,
        "Inclination(deg)": 45.0,
        "Latitude(deg)": 40.38190885570342,
        "Longitude(deg)": -37.23309929154478,
        "Mean Anomaly(deg)": 66.00081026224909,
        "RAAN(deg)": 4.9994906975098745,
        "Satellite Name": "Constellation 1 26",
        "Satellite Number": 26,
        "Semi-Major Axis(m)": 7083131.272910544,
        "Time(s)": 9
    },
    {
        "Altitude(m)": 706254.3558055905,
        "Argument of Periapsis(deg)": 0.0005994800624540561,
        "Eccentricity": 0.0,
        "Inclination(deg)": 45.0,
        "Latitude(deg)": 40.404841144872464,
        "Longitude(deg)": -37.16351833855581,
        "Mean Anomaly(deg)": 66.06151140249898,
        "RAAN(deg)": 4.999434108344305,
        "Satellite Name": "Constellation 1 26",
        "Satellite Number": 26,
        "Semi-Major Axis(m)": 7083131.272910544,
        "Time(s)": 10
    },
    {
        "Altitude(m)": 706259.2849837063,
        "Argument of Periapsis(deg)": 0.0006594280686994618,
        "Eccentricity": 0.0,
        "Inclination(deg)": 45.0,
        "Latitude(deg)": 40.42772636501308,
        "Longitude(deg)": -37.093887440626055,
        "Mean Anomaly(deg)": 66.12221254274888,
        "RAAN(deg)": 4.9993775191787355,
        "Satellite Name": "Constellation 1 26",
        "Satellite Number": 26,
        "Semi-Major Axis(m)": 7083131.272910544,
        "Time(s)": 11
    },
    {
        "Altitude(m)": 706264.2057443272,
        "Argument of Periapsis(deg)": 0.0007193760749448675,
        "Eccentricity": 0.0,
        "Inclination(deg)": 45.0,
        "Latitude(deg)": 40.450564446902504,
        "Longitude(deg)": -37.02420662617943,
        "Mean Anomaly(deg)": 66.18291368299879,
        "RAAN(deg)": 4.999320930013166,
        "Satellite Name": "Constellation 1 26",
        "Satellite Number": 26,
        "Semi-Major Axis(m)": 7083131.272910544,
        "Time(s)": 12
    },
    {
        "Altitude(m)": 706269.1180577537,
        "Argument of Periapsis(deg)": 0.000779324081190273,
        "Eccentricity": 0.0,
        "Inclination(deg)": 45.0,
        "Latitude(deg)": 40.47335532133772,
        "Longitude(deg)": -36.95447592411756,
        "Mean Anomaly(deg)": 66.24361482324868,
        "RAAN(deg)": 4.9992643408475965,
        "Satellite Name": "Constellation 1 26",
        "Satellite Number": 26,
        "Semi-Major Axis(m)": 7083131.272910544,
        "Time(s)": 13
    },
    {
        "Altitude(m)": 706274.0218943423,
        "Argument of Periapsis(deg)": 0.0008392720874356787,
        "Eccentricity": 0.0,
        "Inclination(deg)": 45.0,
        "Latitude(deg)": 40.49609891913604,
        "Longitude(deg)": -36.88469536382086,
        "Mean Anomaly(deg)": 66.30431596349858,
        "RAAN(deg)": 4.999207751682027,
        "Satellite Name": "Constellation 1 26",
        "Satellite Number": 26,
        "Semi-Major Axis(m)": 7083131.272910544,
        "Time(s)": 14
    },
    {
        "Altitude(m)": 706278.9172245058,
        "Argument of Periapsis(deg)": 0.0008992200936810842,
        "Eccentricity": 0.0,
        "Inclination(deg)": 45.0,
        "Latitude(deg)": 40.51879517113559,
        "Longitude(deg)": -36.814865143246905,
        "Mean Anomaly(deg)": 66.36501710374849,
        "RAAN(deg)": 4.9991511625164575,
        "Satellite Name": "Constellation 1 26",
        "Satellite Number": 26,
        "Semi-Major Axis(m)": 7083131.272910544,
        "Time(s)": 15
    },
    {
        "Altitude(m)": 706283.8040187041,
        "Argument of Periapsis(deg)": 0.0009591680999264898,
        "Eccentricity": 0.0,
        "Inclination(deg)": 45.0,
        "Latitude(deg)": 40.541444008197004,
        "Longitude(deg)": -36.74498495654412,
        "Mean Anomaly(deg)": 66.42571824399838,
        "RAAN(deg)": 4.999094573350888,
        "Satellite Name": "Constellation 1 26",
        "Satellite Number": 26,
        "Semi-Major Axis(m)": 7083131.272910544,
        "Time(s)": 16
    },
    {
        "Altitude(m)": 706288.6822474758,
        "Argument of Periapsis(deg)": 0.0010191161061718953,
        "Eccentricity": 0.0,
        "Inclination(deg)": 45.0,
        "Latitude(deg)": 40.56404536120252,
        "Longitude(deg)": -36.67505500263406,
        "Mean Anomaly(deg)": 66.48641938424828,
        "RAAN(deg)": 4.9990379841853185,
        "Satellite Name": "Constellation 1 26",
        "Satellite Number": 26,
        "Semi-Major Axis(m)": 7083131.272910544,
        "Time(s)": 17
    },
    {
        "Altitude(m)": 706293.5518813924,
        "Argument of Periapsis(deg)": 0.001079064112417301,
        "Eccentricity": 0.0,
        "Inclination(deg)": 45.0,
        "Latitude(deg)": 40.58659916105781,
        "Longitude(deg)": -36.6050753128253,
        "Mean Anomaly(deg)": 66.54712052449818,
        "RAAN(deg)": 4.998981395019749,
        "Satellite Name": "Constellation 1 26",
        "Satellite Number": 26,
        "Semi-Major Axis(m)": 7083131.272910544,
        "Time(s)": 18
    }
]